{
    "links": {
        "self": "http://www.neowsapp.com/rest/v1/neo/3781734?api_key=iIulBulltgU6a56xZRHN4H3l9WmuAYTsLGpBGhQ2"
    },
    "id": "3781734",
    "neo_reference_id": "3781734",
    "name": "(2017 SQ12)",
    "designation": "2017 SQ12",
    "nasa_jpl_url": "http://ssd.jpl.nasa.gov/sbdb.cgi?sstr=3781734",
    "absolute_magnitude_h": 25.4,
    "estimated_diameter": {
        "kilometers": {
            "estimated_diameter_min": 0.022108281,
            "estimated_diameter_max": 0.0494356193
        },
        "meters": {
            "estimated_diameter_min": 22.1082810359,
            "estimated_diameter_max": 49.435619262
        },
        "miles": {
            "estimated_diameter_min": 0.0137374447,
            "estimated_diameter_max": 0.0307178602
        },
        "feet": {
            "estimated_diameter_min": 72.5337327539,
            "estimated_diameter_max": 162.1903570994
        }
    },
    "is_potentially_hazardous_asteroid": false,
    "close_approach_data": [
        {
            "close_approach_date": "2017-09-29",
            "close_approach_date_full": "2017-Sep-29 08:22",
            "epoch_date_close_approach": 1506673320000,
            "relative_velocity": {
                "kilometers_per_second": "6.9739343415",
                "kilometers_per_hour": "25106.1636293176",
                "miles_per_hour": "15599.9937284501"
            },
            "miss_distance": {
                "astronomical": "0.0441345771",
                "lunar": "17.1683504919",
                "kilometers": "6602438.727510777",
                "miles": "4102565.1867996426"
            },
            "orbiting_body": "Earth"
        }
    ],
    "orbital_data": {
        "orbit_id": "7",
        "orbit_determination_date": "2017-10-24 06:21:28",
        "first_observation_date": "2017-09-22",
        "last_observation_date": "2017-10-20",
        "data_arc_in_days": 28,
        "observations_used": 51,
        "orbit_uncertainty": "7",
        "minimum_orbit_intersection": ".044013",
        "jupiter_tisserand_invariant": "3.237",
        "epoch_osculation": "2459000.5",
        "eccentricity": ".5780594897118425",
        "semi_major_axis": "2.459981262939853",
        "inclination": "1.322143570146723",
        "ascending_node_longitude": "287.8007665721825",
        "orbital_period": "1409.276226266979",
        "perihelion_distance": "1.037965749384148",
        "perihelion_argument": "81.54661169341155",
        "aphelion_distance": "3.881996776495559",
        "perihelion_time": "2459437.606946429207",
        "mean_anomaly": "248.3409101909422",
        "mean_motion": ".2554502753187012",
        "equinox": "J2000",
        "orbit_class": {
            "orbit_class_type": "AMO",
            "orbit_class_description": "Near-Earth asteroid orbits similar to that of 1221 Amor",
            "orbit_class_range": "1.017 AU < q (perihelion) < 1.3 AU"
        }
    },
    "is_sentry_object": false
}